SENTINEL-1A             
1 39634U 14016A   26186.26462370  .00000077  00000+0  25979-4 0  9999
2 39634  98.1778 193.5337 0001379  86.0922 274.0435 14.59200220652659
SENTINEL-2A             
1 40697U 15028A   26186.32657647  .00000205  00000+0  94894-4 0  9999
2 40697  98.5678 260.9208 0001227  96.1871 263.9452 14.30820915576329
SENTINEL-3A             
1 41335U 16011A   26186.16981874  .00000160  00000+0  84197-4 0  9991
2 41335  98.6241 253.2946 0001423  93.4210 266.7134 14.26737992540624
SENTINEL-2B             
1 42063U 17013A   26186.31937325  .00000089  00000+0  50607-4 0  9991
2 42063  98.5686 260.8379 0001219  89.3506 270.7817 14.30813081487233
SENTINEL-5P             
1 42969U 17064A   26185.82336367  .00000098  00000+0  67553-4 0  9994
2 42969  98.7928 127.8294 0001088  92.0337 268.0964 14.19522247452068
SENTINEL-3B             
1 43437U 18039A   26186.21308142  .00000164  00000+0  85603-4 0  9992
2 43437  98.6240 253.4861 0000920 117.0798 243.0476 14.26740289426691
SENTINEL-6A             
1 46984U 20086A   26185.49641758 -.00000038  00000+0  98234-4 0  9994
2 46984  66.0414  99.1022 0007837 270.0559  89.9558 12.80930021262549
SENTINEL-2C             
1 60989U 24157A   26186.21449580  .00000181  00000+0  85755-4 0  9990
2 60989  98.5686 260.7412 0000935  94.1003 266.0286 14.30813996 95561
SENTINEL-1C             
1 62261U 24235A   26186.30401464 -.00000112  00000+0 -14098-4 0  9999
2 62261  98.1823 193.3537 0001291  90.6275 269.5073 14.59197631 84058
SENTINEL-1D             
1 66315U 25251A   26185.99559531 -.00000119  00000+0 -15564-4 0  9991
2 66315  98.1835 193.1045 0001306  90.7095 269.4254 14.59197335 35322
SENTINEL-6B             
1 66514U 25264A   26185.73099325 -.00000035  00000+0  11457-3 0  9990
2 66514  66.0414  98.7411 0007916 268.9242  91.0867 12.80930074 29412
